[{"OBJECT_NAME":"BRO-20","OBJECT_ID":"2025-276J","EPOCH":"2026-03-09T17:53:13.761888","MEAN_MOTION":15.17433082,"ECCENTRICITY":0.00061573,"INCLINATION":97.4238,"RA_OF_ASC_NODE":143.811,"ARG_OF_PERICENTER":5.4292,"MEAN_ANOMALY":354.7007,"EPHEMERIS_TYPE":0,"CLASSIFICATION_TYPE":"U","NORAD_CAT_ID":66674,"ELEMENT_SET_NO":999,"REV_AT_EPOCH":1531,"BSTAR":0.00030941634,"MEAN_MOTION_DOT":6.127e-5,"MEAN_MOTION_DDOT":0},{"OBJECT_NAME":"FLOCK 4H-7","OBJECT_ID":"2025-276AW","EPOCH":"2026-03-09T22:43:30.994464","MEAN_MOTION":15.18760022,"ECCENTRICITY":0.00028609,"INCLINATION":97.4252,"RA_OF_ASC_NODE":144.168,"ARG_OF_PERICENTER":46.1134,"MEAN_ANOMALY":314.0336,"EPHEMERIS_TYPE":0,"CLASSIFICATION_TYPE":"U","NORAD_CAT_ID":66710,"ELEMENT_SET_NO":999,"REV_AT_EPOCH":1535,"BSTAR":0.00044917791,"MEAN_MOTION_DOT":9.273e-5,"MEAN_MOTION_DDOT":0}]
